NORAD_CAT_ID,OBJECT_NAME,OBJECT_TYPE,EPOCH,MEAN_MOTION,ECCENTRICITY,INCLINATION,RA_OF_ASC_NODE,ARG_OF_PERICENTER,MEAN_ANOMALY,BSTAR,MEAN_MOTION_DOT,MEAN_MOTION_DDOT,TLE_LINE0,TLE_LINE1,TLE_LINE2,SEMIMAJOR_AXIS,PERIOD,APOGEE,PERIGEE,DECAYED
51978.0,STARLINK-3666,PAYLOAD,2022-05-23 22:00:01,15.08792808,0.0001613,53.2119,140.1033,56.4526,220.8818,0.0036403,0.0005805,0.0,0 STARLINK-3666,1 51978U 22025Y   22143.91668981  .00058050  00000-0  36403-2 0  9997,2 51978  53.2119 140.1033 0001613  56.4526 220.8818 15.08792808  1305,6918.025,95.441,541.006,538.774,0.0
51978.0,STARLINK-3666,PAYLOAD,2022-05-24 06:00:02,15.08838745,0.0001728,53.212,138.6085,50.8416,238.0543,0.00067192,0.00010421,0.0,0 STARLINK-3666,1 51978U 22025Y   22144.25002315  .00010421  00000-0  67192-3 0  9998,2 51978  53.2120 138.6085 0001728  50.8416 238.0543 15.08838745 12993,6917.884,95.438,540.945,538.554,0.0
51978.0,STARLINK-3666,PAYLOAD,2022-05-24 11:05:02,15.08833211,0.0001717,53.2126,137.6564,50.5374,309.5769,-4.1458e-06,-3.54e-06,0.0,0 STARLINK-3666,1 51978U 22025Y   22144.46183815 -.00000354  00000-0 -41458-5 0  9991,2 51978  53.2126 137.6564 0001717  50.5374 309.5769 15.08833211 11938,6917.901,95.438,540.9540000000002,538.578,0.0
51978.0,STARLINK-3666,PAYLOAD,2022-05-24 22:00:00,15.08842447,0.0001579,53.2121,135.6137,56.3576,255.6921,0.0026029,0.00041384,0.0,0 STARLINK-3666,1 51978U 22025Y   22144.91667824  .00041384  00000-0  26029-2 0  9998,2 51978  53.2121 135.6137 0001579  56.3576 255.6921 15.08842447  1303,6917.873000000001,95.437,540.83,538.646,0.0
51978.0,STARLINK-3666,PAYLOAD,2022-05-25 12:00:00,15.08876054,0.0001705,53.2117,132.9964,48.4071,193.9756,-0.0012435,-0.00020044,0.0,0 STARLINK-3666,1 51978U 22025Y   22145.50001157 -.00020044  00000-0 -12435-2 0  9993,2 51978  53.2117 132.9964 0001705  48.4071 193.9756 15.08876054 13189,6917.77,95.435,540.815,538.456,0.0
51978.0,STARLINK-3666,PAYLOAD,2022-05-25 14:00:01,15.08895123,0.0001653,53.2117,132.6217,49.1777,286.1082,-0.0043899,-0.00069584,0.0,0 STARLINK-3666,1 51978U 22025Y   22145.58334491 -.00069584  00000-0 -43899-2 0  9991,2 51978  53.2117 132.6217 0001653  49.1777 286.1082 15.08895123  1306,6917.712,95.434,540.72,538.433,0.0
51978.0,STARLINK-3666,PAYLOAD,2022-05-25 22:00:00,15.088437,0.0001477,53.212,131.1239,55.7802,291.1418,0.0017655,0.00027925,0.0,0 STARLINK-3666,1 51978U 22025Y   22145.91667824  .00027925  00000-0  17655-2 0  9999,2 51978  53.2120 131.1239 0001477  55.7802 291.1418 15.08843700  1307,6917.869000000002,95.437,540.756,538.712,0.0
51978.0,STARLINK-3666,PAYLOAD,2022-05-26 14:00:01,15.08852709,0.000153,53.2114,128.1318,47.5802,322.5471,-0.0019602,-0.0003136,0.0,0 STARLINK-3666,1 51978U 22025Y   22146.58334491 -.00031360  00000-0 -19602-2 0  9998,2 51978  53.2114 128.1318 0001530  47.5802 322.5471 15.08852709 13347,6917.842,95.437,540.765,538.648,0.0
51978.0,STARLINK-3666,PAYLOAD,2022-05-26 22:00:00,15.08802597,0.0001588,53.2163,126.6244,49.0947,332.6276,0.0034154,0.00054432,0.0,0 STARLINK-3666,1 51978U 22025Y   22146.91667824  .00054432  00000-0  34154-2 0  9996,2 51978  53.2163 126.6244 0001588  49.0947 332.6276 15.08802597  1300,6917.995,95.44,540.9580000000002,538.761,0.0
51978.0,STARLINK-3666,PAYLOAD,2022-05-27 14:00:01,15.08863041,0.000156,53.21100000000001,123.642,50.4475,354.4673,-0.0019972,-0.00031953,0.0,0 STARLINK-3666,1 51978U 22025Y   22147.58334491 -.00031953  00000-0 -19972-2 0  9997,2 51978  53.2110 123.6420 0001560  50.4475 354.4673 15.08863041  1301,6917.81,95.436,540.754,538.596,0.0
51978.0,STARLINK-3666,PAYLOAD,2022-05-27 16:00:00,15.08879522,0.0001559,53.2135,123.2629,51.2716,86.5464,-0.0052095,-0.0008234,0.0,0 STARLINK-3666,1 51978U 22025Y   22147.66667824 -.00082340  00000-0 -52095-2 0  9994,2 51978  53.2135 123.2629 0001559  51.2716  86.5464 15.08879522 13518,6917.76,95.435,540.703,538.5459999999998,0.0
51978.0,STARLINK-3666,PAYLOAD,2022-05-27 22:00:01,15.08792929,0.0001523,53.2149,122.1368,55.8312,0.7765,0.00023379,3.43e-05,0.0,0 STARLINK-3666,1 51978U 22025Y   22147.91668981  .00003430  00000-0  23379-3 0  9992,2 51978  53.2149 122.1368 0001523  55.8312   0.7765 15.08792929  1305,6918.024,95.441,540.943,538.836,0.0
51978.0,STARLINK-3666,PAYLOAD,2022-05-28 06:00:02,15.08827343,0.0001748,53.2112,120.6498,54.1031,14.0831,0.000286,4.265e-05,0.0,0 STARLINK-3666,1 51978U 22025Y   22148.25002315  .00004265  00000-0  28600-3 0  9992,2 51978  53.2112 120.6498 0001748  54.1031  14.0831 15.08827343 13596,6917.919,95.438,540.993,538.575,0.0
51978.0,STARLINK-3666,PAYLOAD,2022-05-28 14:00:01,15.08853242,0.000168,53.2109,119.1523,54.8008,24.9054,-0.0016244,-0.00026057,0.0,0 STARLINK-3666,1 51978U 22025Y   22148.58334491 -.00026057  00000-0 -16244-2 0  9996,2 51978  53.2109 119.1523 0001680  54.8008  24.9054 15.08853242  1300,6917.84,95.437,540.867,538.543,0.0
51978.0,STARLINK-3666,PAYLOAD,2022-05-28 22:00:00,15.08852408,0.0001625,53.2111,117.6549,60.8202,30.4897,0.00064391,9.978e-05,0.0,0 STARLINK-3666,1 51978U 22025Y   22148.91667824  .00009978  00000-0  64391-3 0  9990,2 51978  53.2111 117.6549 0001625  60.8202  30.4897 15.08852408  1306,6917.842,95.437,540.832,538.5830000000002,0.0
51978.0,STARLINK-3666,PAYLOAD,2022-05-29 14:00:01,15.08854582,0.0001617,53.2113,114.6625,52.4323,62.0679,-0.0035974,-0.0005711,0.0,0 STARLINK-3666,1 51978U 22025Y   22149.58334491 -.00057110  00000-0 -35974-2 0  9992,2 51978  53.2113 114.6625 0001617  52.4323  62.0679 15.08854582 13804,6917.8359999999975,95.437,540.819,538.582,0.0
51978.0,STARLINK-3666,PAYLOAD,2022-05-29 22:00:00,15.08818546,0.0001547,53.2117,113.1653,57.334,68.7557,0.00034941,5.274e-05,0.0,0 STARLINK-3666,1 51978U 22025Y   22149.91667824  .00005274  00000-0  34941-3 0  9994,2 51978  53.2117 113.1653 0001547  57.3340  68.7557 15.08818546  1308,6917.946,95.439,540.881,538.741,0.0
51978.0,STARLINK-3666,PAYLOAD,2022-05-30 06:00:00,15.08806159,0.0001717,53.2119,111.6708,50.2214,87.4429,0.0013835,0.00021779,0.0,0 STARLINK-3666,1 51978U 22025Y   22150.25001157  .00021779  00000-0  13835-2 0  9990,2 51978  53.2119 111.6708 0001717  50.2214  87.4429 15.08806159 13907,6917.984,95.44,541.0369999999998,538.661,0.0
51978.0,STARLINK-3666,PAYLOAD,2022-05-30 14:00:01,15.08836404,0.0001628,53.212,110.1731,52.0006,97.2266,-0.0013380999999999,-0.00021519,0.0,0 STARLINK-3666,1 51978U 22025Y   22150.58334491 -.00021519  00000-0 -13381-2 0  9996,2 51978  53.2120 110.1731 0001628  52.0006  97.2266 15.08836404  1304,6917.891,95.438,540.883,538.63,0.0
51978.0,STARLINK-3666,PAYLOAD,2022-05-30 22:00:00,15.08834085,0.0001641,53.2126,108.6761,57.4696,103.3328,0.00047936,7.348e-05,0.0,0 STARLINK-3666,1 51978U 22025Y   22150.91667824  .00007348  00000-0  47936-3 0  9998,2 51978  53.2126 108.6761 0001641  57.4696 103.3328 15.08834085  1305,6917.898,95.438,540.899,538.628,0.0
51978.0,STARLINK-3666,PAYLOAD,2022-05-31 06:00:02,15.08820423,0.0001814,53.2127,107.1814,50.5715,121.8888,0.0018517,0.00029289,0.0,0 STARLINK-3666,1 51978U 22025Y   22151.25002315  .00029289  00000-0  18517-2 0  9994,2 51978  53.2127 107.1814 0001814  50.5715 121.8888 15.08820423 14050,6917.94,95.439,541.06,538.55,0.0
51978.0,STARLINK-3666,PAYLOAD,2022-05-31 22:00:00,15.08856298,0.0001709,53.2133,104.1869,58.475,137.1047,0.00017904,2.564e-05,0.0,0 STARLINK-3666,1 51978U 22025Y   22151.91667824  .00002564  00000-0  17904-3 0  9996,2 51978  53.2133 104.1869 0001709  58.4750 137.1047 15.08856298  1303,6917.831,95.437,540.878,538.513,0.0
51978.0,STARLINK-3666,PAYLOAD,2022-06-01 06:00:00,15.08845721,0.0001846,53.2133,102.6922,51.2089,155.9916,0.0011135,0.00017481,0.0,0 STARLINK-3666,1 51978U 22025Y   22152.25001157  .00017481  00000-0  11135-2 0  9998,2 51978  53.2133 102.6922 0001846  51.2089 155.9916 15.08845721 14209,6917.863,95.437,541.005,538.451,0.0
51978.0,STARLINK-3666,PAYLOAD,2022-06-01 20:00:01,15.08814892,0.0001585,53.2137,100.0713,56.0894,81.4585,0.001617,0.00025523,0.0,0 STARLINK-3666,1 51978U 22025Y   22152.83334491  .00025523  00000-0  16170-2 0  9992,2 51978  53.2137 100.0713 0001585  56.0894  81.4585 15.08814892 14299,6917.956999999999,95.439,540.919,538.726,0.0
51978.0,STARLINK-3666,PAYLOAD,2022-06-03 03:11:18,15.08933554,0.0001190999999999,53.2138,94.2373,48.434,311.6754,-0.0012131,-0.00019592,0.0,0 STARLINK-3666,1 51978U 22025Y   22154.13285218 -.00019592  00000-0 -12131-2 0  9993,2 51978  53.2138  94.2373 0001191  48.4340 311.6754 15.08933554 14484,6917.594,95.432,540.283,538.636,0.0
51978.0,STARLINK-3666,PAYLOAD,2022-06-03 12:43:39,15.08820269,0.0001576999999999,53.2129,92.4525,45.7545,314.3576,-2.3766e-05,-6.66e-06,0.0,0 STARLINK-3666,1 51978U 22025Y   22154.53031381 -.00000666  00000-0 -23766-4 0  9997,2 51978  53.2129  92.4525 0001577  45.7545 314.3576 15.08820269 14545,6917.941,95.439,540.8969999999998,538.715,0.0
51978.0,STARLINK-3666,PAYLOAD,2022-06-03 19:05:11,15.08819835,0.000159,53.213,91.2629,46.5029,313.6095,-2.6631e-05,-7.12e-06,0.0,0 STARLINK-3666,1 51978U 22025Y   22154.79527730 -.00000712  00000-0 -26631-4 0  9999,2 51978  53.2130  91.2629 0001590  46.5029 313.6095 15.08819835 13498,6917.941999999999,95.439,540.9069999999998,538.707,0.0
51978.0,STARLINK-3666,PAYLOAD,2022-06-04 12:34:26,15.08830231,0.0001593,53.213,87.9922,49.5153,310.5978,3.6716e-05,2.96e-06,0.0,0 STARLINK-3666,1 51978U 22025Y   22155.52391460  .00000296  00000-0  36716-4 0  9990,2 51978  53.2130  87.9922 0001593  49.5153 310.5978 15.08830231 14692,6917.91,95.438,540.877,538.673,0.0
51978.0,STARLINK-3666,PAYLOAD,2022-06-05 22:00:00,15.08855006,0.0001740999999999,53.2126,81.7412,61.5355,307.8703,-0.0014762,-0.00023715,0.0,0 STARLINK-3666,1 51978U 22025Y   22156.91667824 -.00023715  00000-0 -14762-2 0  9992,2 51978  53.2126  81.7412 0001741  61.5355 307.8703 15.08855006 14902,6917.835,95.437,540.904,538.495,0.0
